KUIPER-00016            
1 63732U 25088J   25229.58335648  .00004732  00000+0  59199-3 0  9997
2 63732  51.8975 294.2133 0012116 110.4257 306.9197 14.83819978  5764
KUIPER-00018            
1 63733U 25088K   25229.58335648  .00044698  00000+0  25300-2 0  9999
2 63733  51.8798 286.6748 0011100 120.1585 174.8649 15.12556950  4932
KUIPER-00019            
1 63734U 25088L   25229.58335648  .00052921  00000+0  28153-2 0  9997
2 63734  51.8762 285.5254 0007598 132.8578   4.0751 15.14717683  5520
KUIPER-00020            
1 63735U 25088M   25229.58335648  .00018060  00000+0  11527-2 0  9991
2 63735  51.8867 287.8241 0007386 123.8558 255.2931 15.08707780  1943
KUIPER-00021            
1 63736U 25088N   25229.58335648  .00042976  00000+0  27553-2 0  9991
2 63736  51.8782 288.5749 0007635 111.3660 319.1622 15.08074451  5431
KUIPER-00023            
1 63737U 25088P   25229.58335648  .00035704  00000+0  25535-2 0  9991
2 63737  51.8897 289.5646 0010211 131.0924 188.7912 15.04081832  4553
KUIPER-00024            
1 63738U 25088Q   25229.58335648 -.00814138  00000+0 -31050-1 0  9998
2 63738  51.8783 283.0562 0002853 121.0791 102.4200 15.28733341  5456
KUIPER-00025            
1 63739U 25088R   25229.55751738  .00005890  00000+0  35581-3 0  9998
2 63739  51.8843 286.9416 0009279 117.0952 243.0971 15.11979703 17532
